STARLINK-32297          
1 61521U 24183N   26068.48024192  .00000724  00000+0  36568-4 0  9999
2 61521  53.1602 143.1773 0001196  82.8704 277.2432 15.30183595 79627
TEVEL2-2                
1 63219U 25052K   26068.64848259  .00020339  00000+0  69428-3 0  9991
2 63219  97.3987 324.7700 0004693 105.7930 254.3828 15.30343745 54855
